{
  "type": "FeatureCollection",
  "features": [
    {
      "type": "Feature",
      "properties": {
        "norad_id": 63772,
        "name": "BIOMASS",
        "group": "resource",
        "lat": -57.17849997897718,
        "lon": -172.38320085661357,
        "alt_km": 676.6620611365661,
        "timestamp": "2025-12-15T22:44:28.581468+00:00",
        "meta_object_name": "BIOMASS",
        "meta_object_id": "2025-090A",
        "meta_epoch": "2025-12-15T06:38:30.270336",
        "meta_mean_motion": 14.67532504,
        "meta_eccentricity": 0.00011842,
        "meta_inclination": 98.0695,
        "meta_ra_of_asc_node": 174.2493,
        "meta_arg_of_pericenter": 82.6411,
        "meta_mean_anomaly": 277.4928,
        "meta_ephemeris_type": 0,
        "meta_classification_type": "U",
        "meta_norad_cat_id": 63772,
        "meta_element_set_no": 999,
        "meta_rev_at_epoch": 3371,
        "meta_bstar": 0.00022306572,
        "meta_mean_motion_dot": 1.217e-05,
        "meta_mean_motion_ddot": 0,
        "tle_line1": "1 63772U 25090A   25349.27673924  .00001217  00000+0  22307-3 0  9991",
        "tle_line2": "2 63772  98.0695 174.2493 0001184  82.6411 277.4928 14.67532504 33710"
      },
      "geometry": {
        "type": "Point",
        "coordinates": [
          -172.38320085661357,
          -57.17849997897718
        ]
      }
    },
    {
      "type": "Feature",
      "properties": {
        "norad_id": 64694,
        "name": "GOSAT-GW (IBUKI GW)",
        "group": "resource",
        "lat": 27.812855765383055,
        "lon": 109.67990877395873,
        "alt_km": 667.4417102906145,
        "timestamp": "2025-12-15T22:44:28.581479+00:00",
        "meta_object_name": "GOSAT-GW (IBUKI GW)",
        "meta_object_id": "2025-141A",
        "meta_epoch": "2025-12-15T07:19:29.681760",
        "meta_mean_motion": 14.67558192,
        "meta_eccentricity": 0.00016925,
        "meta_inclination": 98.0426,
        "meta_ra_of_asc_node": 284.7717,
        "meta_arg_of_pericenter": 76.3313,
        "meta_mean_anomaly": 283.808,
        "meta_ephemeris_type": 0,
        "meta_classification_type": "U",
        "meta_norad_cat_id": 64694,
        "meta_element_set_no": 999,
        "meta_rev_at_epoch": 2487,
        "meta_bstar": 0.00018953527,
        "meta_mean_motion_dot": 1.028e-05,
        "meta_mean_motion_ddot": 0,
        "tle_line1": "1 64694U 25141A   25349.30520465  .00001028  00000+0  18954-3 0  9990",
        "tle_line2": "2 64694  98.0426 284.7717 0001692  76.3313 283.8080 14.67558192 24875"
      },
      "geometry": {
        "type": "Point",
        "coordinates": [
          109.67990877395873,
          27.812855765383055
        ]
      }
    },
    {
      "type": "Feature",
      "properties": {
        "norad_id": 64876,
        "name": "IONOSFERA-M 3",
        "group": "resource",
        "lat": -17.414923008842127,
        "lon": -45.563379090006876,
        "alt_km": 824.8787531524931,
        "timestamp": "2025-12-15T22:44:28.581489+00:00",
        "meta_object_name": "IONOSFERA-M 3",
        "meta_object_id": "2025-155A",
        "meta_epoch": "2025-12-15T09:18:31.969728",
        "meta_mean_motion": 14.21441734,
        "meta_eccentricity": 0.00021724,
        "meta_inclination": 98.5785,
        "meta_ra_of_asc_node": 311.179,
        "meta_arg_of_pericenter": 55.9364,
        "meta_mean_anomaly": 304.2019,
        "meta_ephemeris_type": 0,
        "meta_classification_type": "U",
        "meta_norad_cat_id": 64876,
        "meta_element_set_no": 999,
        "meta_rev_at_epoch": 2029,
        "meta_bstar": 6.1766408e-05,
        "meta_mean_motion_dot": 9.2e-07,
        "meta_mean_motion_ddot": 0,
        "tle_line1": "1 64876U 25155A   25349.38787002  .00000092  00000+0  61766-4 0  9997",
        "tle_line2": "2 64876  98.5785 311.1790 0002172  55.9364 304.2019 14.21441734 20294"
      },
      "geometry": {
        "type": "Point",
        "coordinates": [
          -45.563379090006876,
          -17.414923008842127
        ]
      }
    },
    {
      "type": "Feature",
      "properties": {
        "norad_id": 64877,
        "name": "IONOSFERA-M 4",
        "group": "resource",
        "lat": 16.490996143911847,
        "lon": 134.20361847214105,
        "alt_km": 821.299684492099,
        "timestamp": "2025-12-15T22:44:28.581500+00:00",
        "meta_object_name": "IONOSFERA-M 4",
        "meta_object_id": "2025-155B",
        "meta_epoch": "2025-12-15T08:27:39.728160",
        "meta_mean_motion": 14.21442839,
        "meta_eccentricity": 0.00015505,
        "meta_inclination": 98.5784,
        "meta_ra_of_asc_node": 311.0643,
        "meta_arg_of_pericenter": 60.8193,
        "meta_mean_anomaly": 299.314,
        "meta_ephemeris_type": 0,
        "meta_classification_type": "U",
        "meta_norad_cat_id": 64877,
        "meta_element_set_no": 999,
        "meta_rev_at_epoch": 2028,
        "meta_bstar": 6.1657984e-05,
        "meta_mean_motion_dot": 9.2e-07,
        "meta_mean_motion_ddot": 0,
        "tle_line1": "1 64877U 25155B   25349.35254315  .00000092  00000+0  61658-4 0  9991",
        "tle_line2": "2 64877  98.5784 311.0643 0001550  60.8193 299.3140 14.21442839 20289"
      },
      "geometry": {
        "type": "Point",
        "coordinates": [
          134.20361847214105,
          16.490996143911847
        ]
      }
    },
    {
      "type": "Feature",
      "properties": {
        "norad_id": 64899,
        "name": "MICROCARB",
        "group": "resource",
        "lat": -1.5933161653228802,
        "lon": -114.98271967636657,
        "alt_km": 649.3466408262948,
        "timestamp": "2025-12-15T22:44:28.581510+00:00",
        "meta_object_name": "MICROCARB",
        "meta_object_id": "2025-156A",
        "meta_epoch": "2025-12-15T03:58:32.903040",
        "meta_mean_motion": 14.72060751,
        "meta_eccentricity": 0.00172742,
        "meta_inclination": 98.0024,
        "meta_ra_of_asc_node": 64.4722,
        "meta_arg_of_pericenter": 137.3856,
        "meta_mean_anomaly": 222.8695,
        "meta_ephemeris_type": 0,
        "meta_classification_type": "U",
        "meta_norad_cat_id": 64899,
        "meta_element_set_no": 999,
        "meta_rev_at_epoch": 2089,
        "meta_bstar": 0.00012237756,
        "meta_mean_motion_dot": 7.21e-06,
        "meta_mean_motion_ddot": 0,
        "tle_line1": "1 64899U 25156A   25349.16565860  .00000721  00000+0  12238-3 0  9993",
        "tle_line2": "2 64899  98.0024  64.4722 0017274 137.3856 222.8695 14.72060751 20896"
      },
      "geometry": {
        "type": "Point",
        "coordinates": [
          -114.98271967636657,
          -1.5933161653228802
        ]
      }
    },
    {
      "type": "Feature",
      "properties": {
        "norad_id": 64900,
        "name": "CO3D 3",
        "group": "resource",
        "lat": 57.07762984863538,
        "lon": 54.63387519917597,
        "alt_km": 498.9071292373528,
        "timestamp": "2025-12-15T22:44:28.581521+00:00",
        "meta_object_name": "CO3D 3",
        "meta_object_id": "2025-156B",
        "meta_epoch": "2025-12-13T16:46:35.865408",
        "meta_mean_motion": 15.2020033,
        "meta_eccentricity": 0.00013843,
        "meta_inclination": 97.4344,
        "meta_ra_of_asc_node": 64.0523,
        "meta_arg_of_pericenter": 93.9049,
        "meta_mean_anomaly": 266.2345,
        "meta_ephemeris_type": 0,
        "meta_classification_type": "U",
        "meta_norad_cat_id": 64900,
        "meta_element_set_no": 999,
        "meta_rev_at_epoch": 2135,
        "meta_bstar": 0.00015817929,
        "meta_mean_motion_dot": 3.358e-05,
        "meta_mean_motion_ddot": 0,
        "tle_line1": "1 64900U 25156B   25347.69902622  .00003358  00000+0  15818-3 0  9999",
        "tle_line2": "2 64900  97.4344  64.0523 0001384  93.9049 266.2345 15.20200330 21357"
      },
      "geometry": {
        "type": "Point",
        "coordinates": [
          54.63387519917597,
          57.07762984863538
        ]
      }
    },
    {
      "type": "Feature",
      "properties": {
        "norad_id": 64901,
        "name": "CO3D 4",
        "group": "resource",
        "lat": 56.09965917721635,
        "lon": 55.06381932775538,
        "alt_km": 500.32886963576857,
        "timestamp": "2025-12-15T22:44:28.581532+00:00",
        "meta_object_name": "CO3D 4",
        "meta_object_id": "2025-156C",
        "meta_epoch": "2025-12-15T08:16:27.481728",
        "meta_mean_motion": 15.20188427,
        "meta_eccentricity": 9.214e-05,
        "meta_inclination": 97.4345,
        "meta_ra_of_asc_node": 65.6748,
        "meta_arg_of_pericenter": 187.39,
        "meta_mean_anomaly": 172.7322,
        "meta_ephemeris_type": 0,
        "meta_classification_type": "U",
        "meta_norad_cat_id": 64901,
        "meta_element_set_no": 999,
        "meta_rev_at_epoch": 2160,
        "meta_bstar": 0.00021573024,
        "meta_mean_motion_dot": 4.603e-05,
        "meta_mean_motion_ddot": 0,
        "tle_line1": "1 64901U 25156C   25349.34476252  .00004603  00000+0  21573-3 0  9998",
        "tle_line2": "2 64901  97.4345  65.6748 0000921 187.3900 172.7322 15.20188427 21601"
      },
      "geometry": {
        "type": "Point",
        "coordinates": [
          55.06381932775538,
          56.09965917721635
        ]
      }
    }
  ]
}